NORAD_CAT_ID,OBJECT_NAME,OBJECT_TYPE,EPOCH,MEAN_MOTION,ECCENTRICITY,INCLINATION,RA_OF_ASC_NODE,ARG_OF_PERICENTER,MEAN_ANOMALY,BSTAR,MEAN_MOTION_DOT,MEAN_MOTION_DDOT,TLE_LINE0,TLE_LINE1,TLE_LINE2,SEMIMAJOR_AXIS,PERIOD,APOGEE,PERIGEE,DECAYED
56487.0,STARLINK-6196,PAYLOAD,2024-07-19 07:26:14,14.99140013,0.000281,70.0001,173.0803,267.2825,92.8013,6.2222e-05,6.65e-06,0.0,0 STARLINK-6196,1 56487U 23064AR  24201.30989502  .00000665  00000-0  62222-4 0  9995,2 56487  70.0001 173.0803 0002810 267.2825  92.8013 14.99140013 66608,6947.689,96.055,571.506,567.602,0.0
56487.0,STARLINK-6196,PAYLOAD,2024-07-19 15:26:39,14.99138086,0.0002809,70.0002,172.2379,269.113,90.9708,2.2141e-05,1.76e-06,0.0,0 STARLINK-6196,1 56487U 23064AR  24201.64351672  .00000176  00000-0  22141-4 0  9996,2 56487  70.0002 172.2379 0002809 269.1130  90.9708 14.99138086 66658,6947.695,96.055,571.512,567.608,0.0
56487.0,STARLINK-6196,PAYLOAD,2024-07-20 05:51:24,14.99141076,0.0002849,70.0003,170.7223,267.1797,92.9036,-1.0115e-05,-2.17e-06,0.0,0 STARLINK-6196,1 56487U 23064AR  24202.24403104 -.00000217  00000-0 -10115-4 0  9997,2 56487  70.0003 170.7223 0002849 267.1797  92.9036 14.99141076 67101,6947.686,96.055,571.53,567.571,0.0
56487.0,STARLINK-6196,PAYLOAD,2024-07-20 07:27:29,14.99142015,0.0002843,70.0003,170.5539,267.2741,92.8093,8.1667e-07,-8.4e-07,0.0,0 STARLINK-6196,1 56487U 23064AR  24202.31075405 -.00000084  00000-0  81667-6 0  9997,2 56487  70.0003 170.5539 0002843 267.2741  92.8093 14.99142015 66759,6947.683,96.055,571.523,567.573,0.0
56487.0,STARLINK-6196,PAYLOAD,2024-07-21 07:28:43,14.99138652,0.0002847,70.0004,168.0278,265.3777,94.7057,1.7791e-05,1.23e-06,0.0,0 STARLINK-6196,1 56487U 23064AR  24203.31161605  .00000123  00000-0  17791-4 0  9994,2 56487  70.0004 168.0278 0002847 265.3777  94.7057 14.99138652 67264,6947.693,96.055,571.536,567.58,0.0
56487.0,STARLINK-6196,PAYLOAD,2024-07-21 21:53:28,14.9913662,0.0003001,70.0,166.5101,268.8129,91.2687,6.1233e-05,6.52e-06,0.0,0 STARLINK-6196,1 56487U 23064AR  24203.91213232  .00000652  00000-0  61233-4 0  9991,2 56487  70.0000 166.5101 0003001 268.8129  91.2687 14.99136620 66993,6947.7,96.055,571.65,567.48,0.0
56487.0,STARLINK-6196,PAYLOAD,2024-07-22 07:29:57,14.99141762,0.0002925,70.0,165.5001,266.8518,93.2307,9.2621e-05,1.035e-05,0.0,0 STARLINK-6196,1 56487U 23064AR  24204.31247240  .00001035  00000-0  92621-4 0  9993,2 56487  70.0000 165.5001 0002925 266.8518  93.2307 14.99141762 67417,6947.684,96.055,571.581,567.517,0.0
56487.0,STARLINK-6196,PAYLOAD,2024-07-22 21:54:42,14.9913864,0.0002882,70.0001,163.9834,269.6962,90.3867,6.8942e-05,7.46e-06,0.0,0 STARLINK-6196,1 56487U 23064AR  24204.91299048  .00000746  00000-0  68942-4 0  9999,2 56487  70.0001 163.9834 0002882 269.6962  90.3867 14.99138640 67140,6947.693,96.055,571.561,567.556,0.0
56487.0,STARLINK-6196,PAYLOAD,2024-07-23 07:31:11,14.99146732,0.0002759,70.0004,162.9746,268.2371,91.8473,0.00013754,1.583e-05,0.0,0 STARLINK-6196,1 56487U 23064AR  24205.31332721  .00001583  00000-0  13754-3 0  9990,2 56487  70.0004 162.9746 0002759 268.2371  91.8473 14.99146732 67562,6947.668,96.055,571.45,567.616,0.0
56487.0,STARLINK-6196,PAYLOAD,2024-07-23 13:55:32,14.99137926,0.0002506,70.0019,162.2984,270.768,89.3193,9.1142e-06,1.7e-07,0.0,0 STARLINK-6196,1 56487U 23064AR  24205.58023189  .00000017  00000-0  91142-5 0  9994,2 56487  70.0019 162.2984 0002506 270.7680  89.3193 14.99137926 67247,6947.696,96.055,571.302,567.819,0.0
56487.0,STARLINK-6196,PAYLOAD,2024-07-24 04:20:17,14.9913049,0.0002321,70.0014,160.7845,255.2499,104.8403,-1.8602e-05,-3.2e-06,0.0,0 STARLINK-6196,1 56487U 23064AR  24206.18075488 -.00000320  00000-0 -18602-4 0  9998,2 56487  70.0014 160.7845 0002321 255.2499 104.8403 14.99130490 67697,6947.719,96.056,571.196,567.971,0.0
56487.0,STARLINK-6196,PAYLOAD,2024-07-24 07:32:27,14.99132693,0.0002621,70.0004,160.4481,264.2256,95.8605,-3.1438e-05,-4.77e-06,0.0,0 STARLINK-6196,1 56487U 23064AR  24206.31420240 -.00000477  00000-0 -31438-4 0  9998,2 56487  70.0004 160.4481 0002621 264.2256  95.8605 14.99132693 67356,6947.712,96.056,571.398,567.756,0.0
56487.0,STARLINK-6196,PAYLOAD,2024-07-25 04:21:30,14.99145311,0.0002978,69.9998,158.2584,255.586,104.497,5.3081e-06,-2.9e-07,0.0,0 STARLINK-6196,1 56487U 23064AR  24207.18160219 -.00000029  00000-0  53081-5 0  9992,2 56487  69.9998 158.2584 0002978 255.5860 104.4970 14.99145311 67840,6947.673,96.055,571.607,567.469,0.0
56487.0,STARLINK-6196,PAYLOAD,2024-07-25 05:57:35,14.99147062,0.0003148,69.9999,158.0899,250.4098,109.6722,3.1159e-05,2.86e-06,0.0,0 STARLINK-6196,1 56487U 23064AR  24207.24832477  .00000286  00000-0  31159-4 0  9996,2 56487  69.9999 158.0899 0003148 250.4098 109.6722 14.99147062 67493,6947.667,96.055,571.719,567.345,0.0
56487.0,STARLINK-6196,PAYLOAD,2024-07-25 20:22:20,14.99133796,0.000256,70.0004,156.5727,262.5275,97.5594,9.9636e-05,1.12e-05,0.0,0 STARLINK-6196,1 56487U 23064AR  24207.84884813  .00001120  00000-0  99636-4 0  9995,2 56487  70.0004 156.5727 0002560 262.5275  97.5594 14.99133796 67945,6947.708,96.055,571.352,567.795,0.0
56487.0,STARLINK-6196,PAYLOAD,2024-07-25 21:58:25,14.99133487,0.000254,70.001,156.4048,260.3122,99.7751,9.0339e-05,1.007e-05,0.0,0 STARLINK-6196,1 56487U 23064AR  24207.91557384  .00001007  00000-0  90339-4 0  9998,2 56487  70.0010 156.4048 0002540 260.3122  99.7751 14.99133487 67599,6947.709,96.055,571.339,567.81,0.0
56487.0,STARLINK-6196,PAYLOAD,2024-07-26 05:58:50,14.99139043,0.0002866,69.9999,155.5622,268.1432,91.9399,9.0395e-05,1.008e-05,0.0,0 STARLINK-6196,1 56487U 23064AR  24208.24919113  .00001008  00000-0  90395-4 0  9990,2 56487  69.9999 155.5622 0002866 268.1432  91.9399 14.99139043 67643,6947.692,96.055,571.548,567.566,0.0
56487.0,STARLINK-6196,PAYLOAD,2024-07-26 13:59:14,14.99137101,0.000293,69.9996,154.7203,267.0687,93.0137,0.00018181,2.122e-05,0.0,0 STARLINK-6196,1 56487U 23064AR  24208.58280854  .00002122  00000-0  18181-3 0  9990,2 56487  69.9996 154.7203 0002930 267.0687  93.0137 14.99137101 67699,6947.698,96.055,571.599,567.527,0.0
56487.0,STARLINK-6196,PAYLOAD,2024-07-27 04:23:58,14.99157422,0.0003981,69.9997,153.204,246.6698,113.4043,-0.00010558,-1.381e-05,0.0,0 STARLINK-6196,1 56487U 23064AR  24209.18331479 -.00001381  00000-0 -10558-3 0  9995,2 56487  69.9997 153.2040 0003981 246.6698 113.4043 14.99157422 68147,6947.635,96.054,572.266,566.734,0.0
56487.0,STARLINK-6196,PAYLOAD,2024-07-27 06:00:03,14.99135597,0.0003998,69.9997,153.0357,242.9921,117.0831,0.00029856,3.546e-05,0.0,0 STARLINK-6196,1 56487U 23064AR  24209.25004146  .00003546  00000-0  29856-3 0  9995,2 56487  69.9997 153.0357 0003998 242.9921 117.0831 14.99135597 68157,6947.703,96.055,572.345,566.79,0.0
56487.0,STARLINK-6196,PAYLOAD,2024-07-27 22:00:54,14.99122205,0.0003046,69.9995,151.3512,268.8612,91.2198,0.00012742,1.459e-05,0.0,0 STARLINK-6196,1 56487U 23064AR  24209.91729616  .00001459  00000-0  12742-3 0  9991,2 56487  69.9995 151.3512 0003046 268.8612  91.2198 14.99122205 67898,6947.744,96.056,571.725,567.493,0.0
56487.0,STARLINK-6196,PAYLOAD,2024-07-28 04:25:13,14.99135997,0.0003005,69.9999,150.679,272.2227,87.8588,-3.3721e-05,-5.05e-06,0.0,0 STARLINK-6196,1 56487U 23064AR  24210.18418844 -.00000505  00000-0 -33721-4 0  9994,2 56487  69.9999 150.6790 0003005 272.2227  87.8588 14.99135997 68299,6947.702,96.055,571.654,567.479,0.0
56487.0,STARLINK-6196,PAYLOAD,2024-07-28 22:02:08,14.99142259,0.0002878,70.0,148.8255,273.3987,86.6843,-6.764e-05,-9.18e-06,0.0,0 STARLINK-6196,1 56487U 23064AR  24210.91814994 -.00000918  00000-0 -67640-4 0  9996,2 56487  70.0000 148.8255 0002878 273.3987  86.6843 14.99142259 68045,6947.682,96.055,571.547,567.548,0.0
56487.0,STARLINK-6196,PAYLOAD,2024-07-29 04:26:27,14.99139448,0.0002838,70.0002,148.1516,273.7811,86.3024,6.7255e-05,7.26e-06,0.0,0 STARLINK-6196,1 56487U 23064AR  24211.18504306  .00000726  00000-0  67255-4 0  9996,2 56487  70.0002 148.1516 0002838 273.7811  86.3024 14.99139448 68444,6947.691,96.055,571.528,567.584,0.0
56487.0,STARLINK-6196,PAYLOAD,2024-07-29 06:02:32,14.99140878,0.0002828,70.0003,147.9831,273.8276,86.256,8.0707e-05,8.9e-06,0.0,0 STARLINK-6196,1 56487U 23064AR  24211.25176584  .00000890  00000-0  80707-4 0  9996,2 56487  70.0003 147.9831 0002828 273.8276  86.2560 14.99140878 68091,6947.686,96.055,571.516,567.587,0.0
56487.0,STARLINK-6196,PAYLOAD,2024-07-29 22:03:22,14.99133775,0.0002759,70.0006,146.2989,274.1658,85.9186,8.0362e-05,8.85e-06,0.0,0 STARLINK-6196,1 56487U 23064AR  24211.91901129  .00000885  00000-0  80362-4 0  9991,2 56487  70.0006 146.2989 0002759 274.1658  85.9186 14.99133775 68190,6947.708,96.055,571.49,567.657,0.0
56487.0,STARLINK-6196,PAYLOAD,2024-07-30 04:27:42,14.99136177,0.0002746,70.0006,145.6252,274.2698,85.8148,9.9752e-05,1.122e-05,0.0,0 STARLINK-6196,1 56487U 23064AR  24212.18590599  .00001122  00000-0  99752-4 0  9994,2 56487  70.0006 145.6252 0002746 274.2698  85.8148 14.99136177 68597,6947.701,96.055,571.474,567.658,0.0
56487.0,STARLINK-6196,PAYLOAD,2024-07-30 12:28:06,14.99139866,0.0002753,70.0007,144.783,274.2469,85.8376,0.00010478,1.183e-05,0.0,0 STARLINK-6196,1 56487U 23064AR  24212.51952369  .00001183  00000-0  10478-3 0  9992,2 56487  70.0007 144.7830 0002753 274.2469  85.8376 14.99139866 68281,6947.69,96.055,571.467,567.642,0.0
56487.0,STARLINK-6196,PAYLOAD,2024-07-30 22:04:36,14.99146752,0.000274,70.0006,143.7725,272.3363,87.7483,8.0034e-05,8.82e-06,0.0,0 STARLINK-6196,1 56487U 23064AR  24212.91986320  .00000882  00000-0  80034-4 0  9991,2 56487  70.0006 143.7725 0002740 272.3363  87.7483 14.99146752 68349,6947.668,96.055,571.437,567.63,0.0
56487.0,STARLINK-6196,PAYLOAD,2024-07-31 04:28:55,14.9915075,0.000267,70.0006,143.0994,269.3743,90.7111,0.00012892,1.478e-05,0.0,0 STARLINK-6196,1 56487U 23064AR  24213.18675382  .00001478  00000-0  12892-3 0  9992,2 56487  70.0006 143.0994 0002670 269.3743  90.7111 14.99150750 68749,6947.656,96.054,571.376,567.666,0.0
